[{"OBJECT_NAME":"STARLINK-30142","OBJECT_ID":"2023-079P","EPOCH":"2026-03-09T03:35:01.920192","MEAN_MOTION":15.27563421,"ECCENTRICITY":9.284e-5,"INCLINATION":42.9981,"RA_OF_ASC_NODE":106.8569,"ARG_OF_PERICENTER":278.1929,"MEAN_ANOMALY":81.8818,"EPHEMERIS_TYPE":0,"CLASSIFICATION_TYPE":"U","NORAD_CAT_ID":56836,"ELEMENT_SET_NO":999,"REV_AT_EPOCH":15284,"BSTAR":-2.5056361e-5,"MEAN_MOTION_DOT":-9.51e-6,"MEAN_MOTION_DDOT":0},{"OBJECT_NAME":"STARLINK-30494","OBJECT_ID":"2023-151G","EPOCH":"2026-03-09T08:39:06.366240","MEAN_MOTION":15.28417441,"ECCENTRICITY":0.00011553,"INCLINATION":43.0027,"RA_OF_ASC_NODE":192.4566,"ARG_OF_PERICENTER":241.5536,"MEAN_ANOMALY":118.52,"EPHEMERIS_TYPE":0,"CLASSIFICATION_TYPE":"U","NORAD_CAT_ID":57970,"ELEMENT_SET_NO":999,"REV_AT_EPOCH":13740,"BSTAR":-3.569111e-5,"MEAN_MOTION_DOT":-1.272e-5,"MEAN_MOTION_DDOT":0}]
